IRIDIUM 7               
1 24793U 97020B   25138.42173479  .00000398  00000+0  13048-3 0  9997
2 24793  86.4003 189.3722 0002198  99.7636 260.3809 14.35920503467849
IRIDIUM 5               
1 24795U 97020D   25138.44139524  .00004534  00000+0  37596-3 0  9994
2 24795  86.3873  97.4477 0106721 244.5669 114.4487 14.94153600481055
IRIDIUM 4               
1 24796U 97020E   25137.86673868  .00000357  00000+0  11415-3 0  9995
2 24796  86.3998 186.5054 0002202  93.2647 266.8802 14.36824136468142
IRIDIUM 914             
1 24836U 97030A   25137.88502038  .00000488  00000+0  14610-3 0  9998
2 24836  86.3982 195.1835 0001692  49.7652 310.3696 14.40849322464867
IRIDIUM 16              
1 24841U 97030F   25137.45181736  .00000512  00000+0  16061-3 0  9995
2 24841  86.4073 218.1751 0003681 130.4322 229.7198 14.38693715462587
IRIDIUM 911             
1 24842U 97030G   25137.49505981  .00000680  00000+0  17914-3 0  9996
2 24842  86.4499 216.9593 0013769 190.7873 169.3037 14.47610404470649
IRIDIUM 17              
1 24870U 97034B   25138.53363528  .00000536  00000+0  17161-3 0  9990
2 24870  86.3964 247.2157 0003843 102.9430 257.2197 14.37805279459326
IRIDIUM 920             
1 24871U 97034C   25138.23608073  .00000544  00000+0  16124-3 0  9992
2 24871  86.4005 226.6378 0011966 169.7986 190.3459 14.41511190462527
